{"type":"Topology","bbox":[-64.90872797300045,17.72467041015933,-64.73526267629003,18.34804347743861],"transform":{"scale":[0.0000017346703138073203,0.000006233793010722889],"translate":[-64.90872797300045,17.72467041015933]},"objects":{"mdo":{"type":"GeometryCollection","geometries":[{"type":"Point","coordinates":[42631,0],"properties":{"Name":"Saint Croix","Outlook":"Persistence","FID_persis":1,"FID_improv":0,"FID_Remove":0,"FID_dev":0,"Fcst_Date":"07/31/2026","Target":"Aug 2026"}},{"type":"Point","coordinates":[0,99999],"properties":{"Name":"Saint Thomas","Outlook":"Persistence","FID_persis":1,"FID_improv":0,"FID_Remove":0,"FID_dev":0,"Fcst_Date":"07/31/2026","Target":"Aug 2026"}},{"type":"Point","coordinates":[99999,98424],"properties":{"Name":"Saint John","Outlook":"Persistence","FID_persis":1,"FID_improv":0,"FID_Remove":0,"FID_dev":0,"Fcst_Date":"07/31/2026","Target":"Aug 2026"}}]}},"arcs":[]}
