{"type":"Topology","bbox":[-64.90193205714975,17.72916207753129,-64.74020067039223,18.340336467913044],"transform":{"scale":[0.0000016173300408756428,0.000006111805021867773],"translate":[-64.90193205714975,17.72916207753129]},"objects":{"sdo":{"type":"GeometryCollection","geometries":[{"type":"Point","coordinates":[74736,0],"properties":{"Name":"Saint Croix","Outlook":"Persistence","FID_persis":1,"FID_improv":0,"FID_Remove":0,"FID_dev":0,"Fcst_Date":"07/31/2026","Target":"October 31"}},{"type":"Point","coordinates":[99999,99999],"properties":{"Name":"Saint John","Outlook":"Persistence","FID_persis":1,"FID_improv":0,"FID_Remove":0,"FID_dev":0,"Fcst_Date":"07/31/2026","Target":"October 31"}},{"type":"Point","coordinates":[0,99999],"properties":{"Name":"Saint Thomas","Outlook":"Persistence","FID_persis":1,"FID_improv":0,"FID_Remove":0,"FID_dev":0,"Fcst_Date":"07/31/2026","Target":"October 31"}}]}},"arcs":[]}
